start=new Date('2023-06-29T00:00:00.000Z').valueOf();
sats=[{"BSTAR":"0.00072398000000","MEAN_MOTION":"15.06403433","TIME_SYSTEM":"UTC","EPHEMERIS_TYPE":"0","NORAD_CAT_ID":"46334","FILE":"3945112","RCS_SIZE":"LARGE","PERIAPSIS":"546.161","ARG_OF_PERICENTER":"103.4924","TLE_LINE1":"1 46334U 20062K   23179.22029588  .00010519  00000-0  72398-3 0  9996","APOAPSIS":"548.245","CENTER_NAME":"EARTH","TLE_LINE2":"2 46334  53.0539 100.8395 0001505 103.4924 256.6232 15.06403433156239","ECCENTRICITY":"0.00015050","REV_AT_EPOCH":"15623","LAUNCH_DATE":"2020-09-03","ELEMENT_SET_NO":"999","MEAN_ANOMALY":"256.6232","OBJECT_ID":"2020-062K","MEAN_MOTION_DDOT":"0.0000000000000","SITE":"AFETR","GP_ID":"234609516","REF_FRAME":"TEME","RA_OF_ASC_NODE":"100.8395","MEAN_ELEMENT_THEORY":"SGP4","DECAY_DATE":null,"INCLINATION":"53.0539","MEAN_MOTION_DOT":"0.00010519","OBJECT_NAME":"STARLINK-1725","EPOCH":"2023-06-28T05:17:13.564032","COUNTRY_CODE":"US","PERIOD":"95.592","SEMIMAJOR_AXIS":"6925.338","OBJECT_TYPE":"PAYLOAD","CLASSIFICATION_TYPE":"U"},{"REV_AT_EPOCH":"15594","LAUNCH_DATE":"2020-09-03","ELEMENT_SET_NO":"999","ECCENTRICITY":"0.00012310","TLE_LINE2":"2 46335  53.0531 121.0335 0001231  94.0634 266.0496 15.06395979155949","TLE_LINE1":"1 46335U 20062L   23179.11521348  .00005142  00000-0  36386-3 0  9999","ARG_OF_PERICENTER":"94.0634","APOAPSIS":"548.078","CENTER_NAME":"EARTH","PERIAPSIS":"546.373","RCS_SIZE":"LARGE","FILE":"3944634","TIME_SYSTEM":"UTC","EPHEMERIS_TYPE":"0","NORAD_CAT_ID":"46335","BSTAR":"0.00036386000000","MEAN_MOTION":"15.06395979","CLASSIFICATION_TYPE":"U","PERIOD":"95.592","SEMIMAJOR_AXIS":"6925.361","OBJECT_TYPE":"PAYLOAD","EPOCH":"2023-06-28T02:45:54.444672","COUNTRY_CODE":"US","MEAN_MOTION_DOT":"0.00005142","OBJECT_NAME":"STARLINK-1727","INCLINATION":"53.0531","DECAY_DATE":null,"REF_FRAME":"TEME","RA_OF_ASC_NODE":"121.0335","MEAN_ELEMENT_THEORY":"SGP4","MEAN_ANOMALY":"266.0496","MEAN_MOTION_DDOT":"0.0000000000000","OBJECT_ID":"2020-062L","SITE":"AFETR","GP_ID":"234597579"},{"PERIAPSIS":"546.540","RCS_SIZE":"LARGE","FILE":"3944634","NORAD_CAT_ID":"46336","EPHEMERIS_TYPE":"0","TIME_SYSTEM":"UTC","MEAN_MOTION":"15.06398778","BSTAR":"0.00051658000000","ELEMENT_SET_NO":"999","LAUNCH_DATE":"2020-09-03","REV_AT_EPOCH":"15622","TLE_LINE2":"2 46336  53.0533 101.0778 0000978  86.2655 273.8446 15.06398778156227","ECCENTRICITY":"0.00009780","CENTER_NAME":"EARTH","TLE_LINE1":"1 46336U 20062M   23179.10600051  .00007421  00000-0  51658-3 0  9999","ARG_OF_PERICENTER":"86.2655","APOAPSIS":"547.895","DECAY_DATE":null,"RA_OF_ASC_NODE":"101.0778","MEAN_ELEMENT_THEORY":"SGP4","REF_FRAME":"TEME","SITE":"AFETR","GP_ID":"234597586","MEAN_ANOMALY":"273.8446","MEAN_MOTION_DDOT":"0.0000000000000","OBJECT_ID":"2020-062M","CLASSIFICATION_TYPE":"U","SEMIMAJOR_AXIS":"6925.352","PERIOD":"95.592","OBJECT_TYPE":"PAYLOAD","COUNTRY_CODE":"US","EPOCH":"2023-06-28T02:32:38.444064","MEAN_MOTION_DOT":"0.00007421","INCLINATION":"53.0533","OBJECT_NAME":"STARLINK-1738"},{"TIME_SYSTEM":"UTC","EPHEMERIS_TYPE":"0","NORAD_CAT_ID":"46337","BSTAR":"0.00043794000000","MEAN_MOTION":"15.06396145","PERIAPSIS":"546.331","FILE":"3944634","RCS_SIZE":"LARGE","APOAPSIS":"548.119","ARG_OF_PERICENTER":"92.5352","TLE_LINE1":"1 46337U 20062N   23179.05439792  .00006247  00000-0  43794-3 0  9993","CENTER_NAME":"EARTH","REV_AT_EPOCH":"15621","ELEMENT_SET_NO":"999","LAUNCH_DATE":"2020-09-03","TLE_LINE2":"2 46337  53.0535 101.3063 0001291  92.5352 267.5784 15.06396145156213","ECCENTRICITY":"0.00012910","OBJECT_ID":"2020-062N","MEAN_MOTION_DDOT":"0.0000000000000","MEAN_ANOMALY":"267.5784","GP_ID":"234597583","SITE":"AFETR","DECAY_DATE":null,"REF_FRAME":"TEME","MEAN_ELEMENT_THEORY":"SGP4","RA_OF_ASC_NODE":"101.3063","EPOCH":"2023-06-28T01:18:19.980288","COUNTRY_CODE":"US","OBJECT_NAME":"STARLINK-1750","MEAN_MOTION_DOT":"0.00006247","INCLINATION":"53.0535","CLASSIFICATION_TYPE":"U","OBJECT_TYPE":"PAYLOAD","PERIOD":"95.592","SEMIMAJOR_AXIS":"6925.360"},{"SITE":"AFETR","GP_ID":"234609199","MEAN_ANOMALY":"265.5332","OBJECT_ID":"2020-062P","MEAN_MOTION_DDOT":"0.0000000000000","DECAY_DATE":null,"RA_OF_ASC_NODE":"120.4872","MEAN_ELEMENT_THEORY":"SGP4","REF_FRAME":"TEME","COUNTRY_CODE":"US","EPOCH":"2023-06-28T05:41:02.747904","INCLINATION":"53.0529","MEAN_MOTION_DOT":"0.00004253","OBJECT_NAME":"STARLINK-1752","CLASSIFICATION_TYPE":"U","PERIOD":"95.593","SEMIMAJOR_AXIS":"6925.376","OBJECT_TYPE":"PAYLOAD","NORAD_CAT_ID":"46338","EPHEMERIS_TYPE":"0","TIME_SYSTEM":"UTC","MEAN_MOTION":"15.06391107","BSTAR":"0.00030433000000","PERIAPSIS":"546.206","FILE":"3945136","RCS_SIZE":"LARGE","CENTER_NAME":"EARTH","TLE_LINE1":"1 46338U 20062P   23179.23683736  .00004253  00000-0  30433-3 0  9994","ARG_OF_PERICENTER":"94.5828","APOAPSIS":"548.275","LAUNCH_DATE":"2020-09-03","ELEMENT_SET_NO":"999","REV_AT_EPOCH":"15595","TLE_LINE2":"2 46338  53.0529 120.4872 0001494  94.5828 265.5332 15.06391107155952","ECCENTRICITY":"0.00014940"},{"CLASSIFICATION_TYPE":"U","OBJECT_TYPE":"PAYLOAD","PERIOD":"95.593","SEMIMAJOR_AXIS":"6925.370","EPOCH":"2023-06-28T03:28:21.129600","COUNTRY_CODE":"US","INCLINATION":"53.0532","MEAN_MOTION_DOT":"0.00003978","OBJECT_NAME":"STARLINK-1759","DECAY_DATE":null,"REF_FRAME":"TEME","MEAN_ELEMENT_THEORY":"SGP4","RA_OF_ASC_NODE":"120.9102","OBJECT_ID":"2020-062R","MEAN_MOTION_DDOT":"0.0000000000000","MEAN_ANOMALY":"269.8689","GP_ID":"234597950","SITE":"AFETR","REV_AT_EPOCH":"15594","ELEMENT_SET_NO":"999","LAUNCH_DATE":"2020-09-03","TLE_LINE2":"2 46340  53.0532 120.9102 0001230  90.2441 269.8689 15.06392857155946","ECCENTRICITY":"0.00012300","APOAPSIS":"548.087","ARG_OF_PERICENTER":"90.2441","TLE_LINE1":"1 46340U 20062R   23179.14468900  .00003978  00000-0  28583-3 0  9997","CENTER_NAME":"EARTH","PERIAPSIS":"546.384","RCS_SIZE":"LARGE","FILE":"3944649","EPHEMERIS_TYPE":"0","TIME_SYSTEM":"UTC","NORAD_CAT_ID":"46340","BSTAR":"0.00028583000000","MEAN_MOTION":"15.06392857"},{"PERIOD":"95.593","SEMIMAJOR_AXIS":"6925.366","OBJECT_TYPE":"PAYLOAD","CLASSIFICATION_TYPE":"U","INCLINATION":"53.0536","MEAN_MOTION_DOT":"0.00006611","OBJECT_NAME":"STARLINK-1760","COUNTRY_CODE":"US","EPOCH":"2023-06-28T03:36:18.743616","RA_OF_ASC_NODE":"100.8729","MEAN_ELEMENT_THEORY":"SGP4","REF_FRAME":"TEME","DECAY_DATE":null,"SITE":"AFETR","GP_ID":"234598444","MEAN_ANOMALY":"268.2737","OBJECT_ID":"2020-062S","MEAN_MOTION_DDOT":"0.0000000000000","TLE_LINE2":"2 46341  53.0536 100.8729 0001137  91.8382 268.2737 15.06394314156230","ECCENTRICITY":"0.00011370","ELEMENT_SET_NO":"999","LAUNCH_DATE":"2020-09-03","REV_AT_EPOCH":"15623","CENTER_NAME":"EARTH","ARG_OF_PERICENTER":"91.8382","TLE_LINE1":"1 46341U 20062S   23179.15021694  .00006611  00000-0  46236-3 0  9996","APOAPSIS":"548.018","RCS_SIZE":"LARGE","FILE":"3944649","PERIAPSIS":"546.444","MEAN_MOTION":"15.06394314","BSTAR":"0.00046236000000","NORAD_CAT_ID":"46341","TIME_SYSTEM":"UTC","EPHEMERIS_TYPE":"0"},{"TLE_LINE2":"2 46342  53.0535 120.9704 0001181  92.0193 268.0932 15.06395724155946","ECCENTRICITY":"0.00011810","REV_AT_EPOCH":"15594","LAUNCH_DATE":"2020-09-03","ELEMENT_SET_NO":"999","APOAPSIS":"548.045","ARG_OF_PERICENTER":"92.0193","TLE_LINE1":"1 46342U 20062T   23179.12994620  .00004553  00000-0  32436-3 0  9992","CENTER_NAME":"EARTH","FILE":"3944573","RCS_SIZE":"LARGE","PERIAPSIS":"546.409","BSTAR":"0.00032436000000","MEAN_MOTION":"15.06395724","TIME_SYSTEM":"UTC","EPHEMERIS_TYPE":"0","NORAD_CAT_ID":"46342","OBJECT_TYPE":"PAYLOAD","SEMIMAJOR_AXIS":"6925.362","PERIOD":"95.592","CLASSIFICATION_TYPE":"U","MEAN_MOTION_DOT":"0.00004553","INCLINATION":"53.0535","OBJECT_NAME":"STARLINK-1762","EPOCH":"2023-06-28T03:07:07.351680","COUNTRY_CODE":"US","REF_FRAME":"TEME","MEAN_ELEMENT_THEORY":"SGP4","RA_OF_ASC_NODE":"120.9704","DECAY_DATE":null,"MEAN_MOTION_DDOT":"0.0000000000000","OBJECT_ID":"2020-062T","MEAN_ANOMALY":"268.0932","GP_ID":"234596267","SITE":"AFETR"},{"FILE":"3944646","RCS_SIZE":"LARGE","PERIAPSIS":"546.123","MEAN_MOTION":"15.06397386","BSTAR":"0.00026478000000","NORAD_CAT_ID":"46343","TIME_SYSTEM":"UTC","EPHEMERIS_TYPE":"0","TLE_LINE2":"2 46343  53.0546 100.6946 0001586  99.3293 260.7875 15.06397386156236","ECCENTRICITY":"0.00015860","ELEMENT_SET_NO":"999","LAUNCH_DATE":"2020-09-03","REV_AT_EPOCH":"15623","CENTER_NAME":"EARTH","APOAPSIS":"548.320","TLE_LINE1":"1 46343U 20062U   23179.19077727  .00003664  00000-0  26478-3 0  9991","ARG_OF_PERICENTER":"99.3293","MEAN_ELEMENT_THEORY":"SGP4","RA_OF_ASC_NODE":"100.6946","REF_FRAME":"TEME","DECAY_DATE":null,"GP_ID":"234598454","SITE":"AFETR","OBJECT_ID":"2020-062U","MEAN_MOTION_DDOT":"0.0000000000000","MEAN_ANOMALY":"260.7875","OBJECT_TYPE":"PAYLOAD","PERIOD":"95.592","SEMIMAJOR_AXIS":"6925.357","CLASSIFICATION_TYPE":"U","OBJECT_NAME":"STARLINK-1764","MEAN_MOTION_DOT":"0.00003664","INCLINATION":"53.0546","COUNTRY_CODE":"US","EPOCH":"2023-06-28T04:34:43.156128"},{"REV_AT_EPOCH":"15619","ELEMENT_SET_NO":"999","LAUNCH_DATE":"2020-09-03","TLE_LINE2":"2 46344  53.0534 101.2055 0001276 112.6076 247.5048 15.06391910156193","ECCENTRICITY":"0.00012760","APOAPSIS":"548.122","TLE_LINE1":"1 46344U 20062V   23179.07650121  .00016947  00000-0  11541-2 0  9996","ARG_OF_PERICENTER":"112.6076","CENTER_NAME":"EARTH","PERIAPSIS":"546.355","FILE":"3944646","RCS_SIZE":"LARGE","EPHEMERIS_TYPE":"0","TIME_SYSTEM":"UTC","NORAD_CAT_ID":"46344","BSTAR":"0.00115410000000","MEAN_MOTION":"15.06391910","CLASSIFICATION_TYPE":"U","OBJECT_TYPE":"PAYLOAD","SEMIMAJOR_AXIS":"6925.373","PERIOD":"95.593","EPOCH":"2023-06-28T01:50:09.704544","COUNTRY_CODE":"US","MEAN_MOTION_DOT":"0.00016947","INCLINATION":"53.0534","OBJECT_NAME":"STARLINK-1765","DECAY_DATE":null,"REF_FRAME":"TEME","MEAN_ELEMENT_THEORY":"SGP4","RA_OF_ASC_NODE":"101.2055","OBJECT_ID":"2020-062V","MEAN_MOTION_DDOT":"0.0000000000000","MEAN_ANOMALY":"247.5048","GP_ID":"234597964","SITE":"AFETR"}];
